CSS (TIANHE)            
1 48274U 21035A   23296.87663848  .00014320  00000+0  17458-3 0  9995
2 48274  41.4718  92.3532 0005214 315.8237  44.2185 15.60186794141958
